IRIDIUM 33 DEB          
1 34643U 97051JU  24157.23717325  .00269364  00000+0  10782-1 0  9999
2 34643  86.3286 245.5916 0022103 220.5809 139.3789 15.23691141804994
IRIDIUM 33 DEB          
1 34648U 97051JZ  24157.20038322  .00005053  00000+0  29831-2 0  9993
2 34648  86.4097 143.3891 0211795 228.5173 129.7654 13.97103471772177
IRIDIUM 33 DEB          
1 34651U 97051KC  24156.55046590  .00008080  00000+0  37361-2 0  9990
2 34651  86.2903  15.0467 0171973 175.9613 184.3009 14.13269765780006
IRIDIUM 33 DEB          
1 34652U 97051KD  24156.64666285  .00005764  00000+0  13611-2 0  9998
2 34652  86.3369 225.8887 0033155  23.4485 128.7975 14.53719691804524
IRIDIUM 33 DEB          
1 34690U 97051KM  24156.78869003  .00005913  00000+0  15360-2 0  9997
2 34690  86.3793 277.4901 0011259  89.3575  63.9066 14.49528846800239
IRIDIUM 33 DEB          
1 34693U 97051KQ  24156.87705237  .00016696  00000+0  26438-2 0  9996
2 34693  86.3350 204.7117 0018942 201.9797 332.9990 14.72036111806143
IRIDIUM 33 DEB          
1 34696U 97051KT  24156.81651204  .00023967  00000+0  82054-2 0  9992
2 34696  86.1986 278.7088 0116940 218.0416 296.5818 14.32311934786259
IRIDIUM 33 DEB          
1 34702U 97051KZ  24156.46414606  .00030619  00000+0  37844-2 0  9993
2 34702  86.3021 161.4817 0031745  62.8320 297.6132 14.82295514811200
IRIDIUM 33 DEB          
1 34765U 97051LJ  24156.79209946  .00002284  00000+0  75527-3 0  9995
2 34765  86.3386 270.6928 0015436 242.0457 271.6356 14.37539316796170
IRIDIUM 33 DEB          
1 34773U 97051LS  24156.76155430  .00105323  00000+0  87533-2 0  9996
2 34773  86.3864 264.6242 0012103 171.3225 188.8218 14.98157023808131
IRIDIUM 33 DEB          
1 34774U 97051LT  24157.22805561  .00863026  00000+0  12524-1 0  9994
2 34774  86.4122 252.5741 0018876 286.3278  73.5907 15.53155982811726
IRIDIUM 33 DEB          
1 34775U 97051LU  24156.33534421  .00023796  00000+0  45636-2 0  9993
2 34775  86.3718 276.0595 0024125  60.0513 353.9620 14.63445627801889
IRIDIUM 33 DEB          
1 34825U 97051LZ  24157.22857617  .00139531  00000+0  81056-2 0  9994
2 34825  86.3545 235.7804 0012832 183.0321 230.6549 15.11398423804961
IRIDIUM 33 DEB          
1 34833U 97051MH  24157.12300477  .00005902  00000+0  16497-2 0  9990
2 34833  86.3935 289.1787 0022667 149.1674 266.6218 14.45906222796743
IRIDIUM 33 DEB          
1 34870U 97051MQ  24157.11598096  .00009036  00000+0  18363-2 0  9992
2 34870  86.3204 205.3175 0022003 312.8782  79.0159 14.60879742808722
IRIDIUM 33 DEB          
1 34896U 97051MY  24156.91001116  .00005795  00000+0  12747-2 0  9997
2 34896  86.3358 214.0822 0029354 317.0619 216.2384 14.57095049794970
IRIDIUM 33 DEB          
1 34898U 97051NA  24131.54996085  .00379784  00000+0  92641-2 0  9992
2 34898  86.3088 166.9276 0003477 190.8282 169.2898 15.39382995806220
IRIDIUM 33 DEB          
1 34926U 97051NF  24156.10388986  .00005874  00000+0  21462-2 0  9997
2 34926  86.1444 260.3738 0137133 321.4821 155.9920 14.27756102784376
IRIDIUM 33 DEB          
1 34928U 97051NH  24156.63052203  .00022135  00000+0  31045-2 0  9994
2 34928  86.3958 232.0749 0028026 142.7228 217.5945 14.77094052579179
IRIDIUM 33 DEB          
1 34985U 97051NR  24156.64472537  .00003044  00000+0  98703-3 0  9997
2 34985  86.3676 293.3646 0020462 255.8062 117.3823 14.38564415791702
IRIDIUM 33 DEB          
1 35051U 97051NX  24155.56334564  .00003362  00000+0  10034-2 0  9992
2 35051  86.3262 250.7139 0010753 131.9093 228.3026 14.42739142789477
IRIDIUM 33 DEB          
1 35052U 97051NY  24156.69924050  .00001126  00000+0  37215-3 0  9990
2 35052  86.3311 258.4837 0013810 104.7439 255.5290 14.37102229792857
IRIDIUM 33 DEB          
1 35079U 97051PE  24131.04651138  .00043094  00000+0  10916-1 0  9992
2 35079  86.4279  51.3330 0097939 158.6029 201.9314 14.47781946779201
IRIDIUM 33 DEB          
1 35080U 97051PF  24154.85955404  .00014431  00000+0  43727-2 0  9991
2 35080  86.2244 306.3822 0136762 266.1917  92.3634 14.36885468615647
IRIDIUM 33 DEB          
1 35294U 97051PJ  24156.87147763  .01074688  00000+0  13932-1 0  9998
2 35294  86.2534 192.4088 0014911 238.5033 296.3950 15.56182013798252
IRIDIUM 33 DEB          
1 35296U 97051PL  24129.50450933  .00031380  00000+0  44979-2 0  9993
2 35296  86.3027 215.3366 0010215 176.5463 183.5829 14.76360424626186
IRIDIUM 33 DEB          
1 35297U 97051PM  24151.17244299  .00003038  00000+0  94834-3 0  9993
2 35297  86.3892 301.4668 0015175 194.8894 165.1861 14.40484766623276
IRIDIUM 33 DEB          
1 35299U 97051PP  24156.32893777  .00006800  00000+0  23681-2 0  9999
2 35299  86.2893 274.0054 0060901 128.9350 259.4865 14.34227399783351
IRIDIUM 33 DEB          
1 35480U 97051QA  24156.57056672  .00004188  00000+0  11995-2 0  9995
2 35480  86.3593 265.0012 0015739 151.5009 208.7057 14.44755461789855
IRIDIUM 33 DEB          
1 35484U 97051QE  24155.53618376  .00011549  00000+0  21342-2 0  9995
2 35484  86.3769 245.8734 0036226 286.7962  72.9278 14.64905691537686
IRIDIUM 33 DEB          
1 35488U 97051QJ  24155.54445115  .00008071  00000+0  14299-2 0  9998
2 35488  86.3362 194.3306 0035469 176.2469 183.9018 14.66781574800508
IRIDIUM 33 DEB          
1 35616U 97051QN  24156.65756290  .00011179  00000+0  22005-2 0  9990
2 35616  86.3635 235.5386 0012409 319.0208  41.0070 14.62443196793916
IRIDIUM 33 DEB          
1 35618U 97051QQ  24156.52924183  .00003029  00000+0  80344-3 0  9992
2 35618  86.3430 235.8282 0032861  80.1594 280.3317 14.48105929573312
IRIDIUM 33 DEB          
1 35620U 97051QS  24156.79160402  .00011878  00000+0  50147-2 0  9998
2 35620  86.3873  88.2318 0187701 251.2086 106.8657 14.16490215520318
IRIDIUM 33 DEB          
1 35622U 97051QU  24155.99376015  .00016838  00000+0  34720-2 0  9990
2 35622  86.2169 166.8709 0026525  78.7046 310.7561 14.60145223791267
IRIDIUM 33 DEB          
1 35625U 97051QX  24152.60202753  .00006744  00000+0  28387-2 0  9992
2 35625  86.1912 267.5246 0118846 201.6985 219.0767 14.21895858777847
IRIDIUM 33 DEB          
1 35628U 97051RA  24156.52713358  .00009276  00000+0  21677-2 0  9996
2 35628  86.3613 254.5335 0016960  69.8608 290.4422 14.54504635783221
IRIDIUM 33 DEB          
1 35631U 97051RD  24156.75059840  .00002216  00000+0  63136-3 0  9998
2 35631  86.3678 259.7972 0019083 165.9541 346.0236 14.44787147791616
IRIDIUM 33 DEB          
1 35632U 97051RE  24156.33270739  .00025103  00000+0  61092-2 0  9993
2 35632  86.4242  15.1827 0091093 238.2097 121.0212 14.50134446777141
IRIDIUM 33 DEB          
1 35680U 97051RJ  24152.60453884  .00005445  00000+0  26645-2 0  9998
2 35680  86.1043 267.2150 0183971 251.1506 173.3823 14.09338072765640
IRIDIUM 33 DEB          
1 35744U 97051RX  24156.90417073  .00007171  00000+0  15121-2 0  9991
2 35744  86.3368 214.1662 0024947 308.4131  51.4838 14.59136020791903
IRIDIUM 33 DEB          
1 35749U 97051SC  24156.94713917  .00050401  00000+0  55379-2 0  9999
2 35749  86.3710 236.4921 0009483 101.7211 258.5079 14.87373363778293
IRIDIUM 33 DEB          
1 35797U 97051SF  24156.94542785  .00010937  00000+0  21221-2 0  9994
2 35797  86.3460 221.1776 0016004 297.1937  62.7643 14.63063227793264
IRIDIUM 33 DEB          
1 35805U 97051SP  24156.38721871  .00064135  00000+0  11618-1 0  9994
2 35805  86.3165 301.9908 0060414 172.8647 187.3441 14.64772792774434
IRIDIUM 33 DEB          
1 35806U 97051SQ  24155.57293825  .00006647  00000+0  18003-2 0  9998
2 35806  86.3462 264.0315 0018008 137.7681 222.4913 14.47488640782831
IRIDIUM 33 DEB          
1 35809U 97051ST  24154.90342052  .00007084  00000+0  14977-2 0  9996
2 35809  86.3358 225.9286 0017815  15.2439 344.9303 14.59111999786916
IRIDIUM 33 DEB          
1 35846U 97051SW  24157.11369691  .00003701  00000+0  11912-2 0  9999
2 35846  86.3749 295.0744 0017998 201.9688 158.0741 14.39003126777314
IRIDIUM 33 DEB          
1 35848U 97051SY  24157.06211352  .00012043  00000+0  24632-2 0  9997
2 35848  86.3957 262.3994 0010257 341.7994  18.2848 14.60718383781092
IRIDIUM 33 DEB          
1 35850U 97051TA  24154.94875826  .00007645  00000+0  15453-2 0  9999
2 35850  86.3573 234.3408 0012869 341.3300  18.7436 14.61218625792394
IRIDIUM 33 DEB          
1 35911U 97051TU  24157.20629417  .00023759  00000+0  57694-2 0  9999
2 35911  86.2261 239.5172 0071794 156.0064 204.4515 14.51185332789036
IRIDIUM 33 DEB          
1 35918U 97051UB  24156.19922632  .00006318  00000+0  18660-2 0  9990
2 35918  86.4028 313.1053 0027589 224.4879 258.9779 14.43183492771550
IRIDIUM 33 DEB          
1 35921U 97051UE  24146.94602537  .00046396  00000+0  89637-2 0  9997
2 35921  86.4113  28.8280 0077159   9.8881 350.3826 14.61267652571152
IRIDIUM 33 DEB          
1 35929U 97051UN  24156.88726863  .00014598  00000+0  24010-2 0  9991
2 35929  86.3492 208.7375 0024496 186.3286 173.7624 14.70297519795278
IRIDIUM 33 DEB          
1 36011U 97051US  24151.61064447  .00002610  00000+0  85731-3 0  9993
2 36011  86.3405 275.6813 0017710 267.8706 105.2011 14.37905123773735
IRIDIUM 33 DEB          
1 36012U 97051UT  24154.31707565  .00008870  00000+0  42438-2 0  9999
2 36012  86.4557 169.4814 0269564 216.2241 142.0421 14.01725707757560
IRIDIUM 33 DEB          
1 36019U 97051VA  24157.19839588  .00036813  00000+0  41352-2 0  9998
2 36019  86.3836 240.3944 0007020 198.9663 191.2554 14.86557673783447
IRIDIUM 33 DEB          
1 36028U 97051VK  24155.84979951  .00010857  00000+0  18621-2 0  9990
2 36028  86.3364 202.6071 0026353 204.1102 155.8881 14.68421269788785
IRIDIUM 33 DEB          
1 36080U 97051VM  24146.02890913  .00004212  00000+0  12807-2 0  9996
2 36080  86.3215 253.8704 0017241 237.0729 122.8813 14.41832651392338
IRIDIUM 33 DEB          
1 36083U 97051VQ  24132.14774431  .00004767  00000+0  15329-2 0  9990
2 36083  86.3413 283.2062 0027132 346.1787  13.8666 14.38985129770869
IRIDIUM 33 DEB          
1 36390U 97051VU  24150.85220965  .00004042  00000+0  82691-3 0  9990
2 36390  86.3013 194.0501 0038073 302.9155  56.8394 14.60162722580212
